[{"OBJECT_NAME":"GLOBALSTAR M072","OBJECT_ID":"2007-020D","EPOCH":"2026-03-09T23:52:30.421920","MEAN_MOTION":11.9165591,"ECCENTRICITY":0.00014583,"INCLINATION":51.9969,"RA_OF_ASC_NODE":4.3229,"ARG_OF_PERICENTER":103.6008,"MEAN_ANOMALY":337.1164,"EPHEMERIS_TYPE":0,"CLASSIFICATION_TYPE":"U","NORAD_CAT_ID":31574,"ELEMENT_SET_NO":999,"REV_AT_EPOCH":86315,"BSTAR":9.6147288e-5,"MEAN_MOTION_DOT":-7.7e-7,"MEAN_MOTION_DDOT":0},{"OBJECT_NAME":"UNKNOWN","OBJECT_ID":"","EPOCH":"2026-02-24T03:58:03.711936","MEAN_MOTION":12.20961756,"ECCENTRICITY":0.03216827,"INCLINATION":103.0468,"RA_OF_ASC_NODE":28.2816,"ARG_OF_PERICENTER":301.112,"MEAN_ANOMALY":55.8739,"EPHEMERIS_TYPE":0,"CLASSIFICATION_TYPE":"U","NORAD_CAT_ID":270230,"ELEMENT_SET_NO":999,"REV_AT_EPOCH":27207,"BSTAR":0.018435701,"MEAN_MOTION_DOT":2.229e-5,"MEAN_MOTION_DDOT":0}]
